0 COSMOS 2251 DEB
1 36373U 93036AZA 13280.53075174  .00040011  00000-0  33406-2 0  3683
2 36373 074.0312 339.9254 0058030 216.1091 143.6170 14.97034534221874
0 COSMOS 2251 DEB
1 36373U 93036AZA 13281.53312810  .00044854  00000-0  37305-2 0  3697
2 36373 074.0263 337.8921 0058865 213.6932 146.0507 14.97115647222023
0 COSMOS 2251 DEB
1 36373U 93036AZA 13283.13677872  .00065884  00000-0  54359-2 0  3703
2 36373 074.0264 334.6433 0057792 210.8168 148.9621 14.97352615222267
0 COSMOS 2251 DEB
1 36373U 93036AZA 13284.13894928  .00060179  00000-0  49541-2 0  3717
2 36373 074.0271 332.6149 0058379 208.2364 151.5655 14.97443291222413
0 COSMOS 2251 DEB
1 36373U 93036AZA 13285.54188304  .00050931  00000-0  41873-2 0  3723
2 36373 074.0255 329.7668 0057876 204.9526 154.8861 14.97567867222626
0 COSMOS 2251 DEB
1 36373U 93036AZA 13286.54390213  .00047859  00000-0  39284-2 0  3737
2 36373 074.0258 327.7382 0057573 202.5398 157.3259 14.97661112222778
0 COSMOS 2251 DEB
1 36373U 93036AZA 13289.08203472  .00070923  00000-0  57589-2 0  3746
2 36373 074.0245 322.5938 0057048 196.5741 163.3583 14.97970613223154
0 COSMOS 2251 DEB
1 36373U 93036AZA 13289.48274152  .00069489  00000-0  56390-2 0  3758
2 36373 074.0246 321.7813 0056938 195.7330 164.2089 14.98006280223219
0 COSMOS 2251 DEB
1 36373U 93036AZA 13291.08546117  .00057442  00000-0  46492-2 0  3769
2 36373 074.0246 318.5316 0056642 192.1453 167.8372 14.98185661223451
0 COSMOS 2251 DEB
1 36373U 93036AZA 13292.48769365  .00057115  00000-0  46080-2 0  3777
2 36373 074.0239 315.6870 0056432 189.0015 171.0165 14.98318255223669
0 COSMOS 2251 DEB
1 36373U 93036AZA 13294.02332232  .00057551  00000-0  46270-2 0  3784
2 36373 074.0246 312.5715 0055999 185.3455 174.7141 14.98468181223898
